{
  "type": "FeatureCollection",
  "features": [
    {
      "type": "Feature",
      "properties": {
        "norad_id": 34079,
        "name": "IRIDIUM 33 DEB",
        "group": "iridium-33-debris",
        "lat": 22.185462757236817,
        "lon": 14.271408714039461,
        "alt_km": 614.6592010255927,
        "timestamp": "2025-12-03T15:48:03.451605+00:00",
        "meta_object_name": "IRIDIUM 33 DEB",
        "meta_object_id": "1997-051CN",
        "meta_epoch": "2025-12-03T02:59:12.787584",
        "meta_mean_motion": 14.83124546,
        "meta_eccentricity": 0.000675,
        "meta_inclination": 86.3786,
        "meta_ra_of_asc_node": 13.034,
        "meta_arg_of_pericenter": 37.1097,
        "meta_mean_anomaly": 16.3841,
        "meta_ephemeris_type": 0,
        "meta_classification_type": "U",
        "meta_norad_cat_id": 34079,
        "meta_element_set_no": 999,
        "meta_rev_at_epoch": 88835,
        "meta_bstar": 0.0021590611,
        "meta_mean_motion_dot": 0.0001765,
        "meta_mean_motion_ddot": 0,
        "tle_line1": "1 34079U 97051CN  25337.12445356  .00017650  00000+0  21591-2 0  9993",
        "tle_line2": "2 34079  86.3786  13.0340 0006750  37.1097  16.3841 14.83124546888352"
      },
      "geometry": {
        "type": "Point",
        "coordinates": [
          14.271408714039461,
          22.185462757236817
        ]
      }
    },
    {
      "type": "Feature",
      "properties": {
        "norad_id": 34088,
        "name": "IRIDIUM 33 DEB",
        "group": "iridium-33-debris",
        "lat": -42.395294146208364,
        "lon": -141.79758224240757,
        "alt_km": 599.1318109038566,
        "timestamp": "2025-12-03T15:48:03.451614+00:00",
        "meta_object_name": "IRIDIUM 33 DEB",
        "meta_object_id": "1997-051CX",
        "meta_epoch": "2025-12-03T05:25:37.193952",
        "meta_mean_motion": 14.90617457,
        "meta_eccentricity": 0.00051765,
        "meta_inclination": 86.3861,
        "meta_ra_of_asc_node": 35.0928,
        "meta_arg_of_pericenter": 211.8675,
        "meta_mean_anomaly": 212.503,
        "meta_ephemeris_type": 0,
        "meta_classification_type": "U",
        "meta_norad_cat_id": 34088,
        "meta_element_set_no": 999,
        "meta_rev_at_epoch": 88600,
        "meta_bstar": 0.0033568861,
        "meta_mean_motion_dot": 0.00033009,
        "meta_mean_motion_ddot": 0,
        "tle_line1": "1 34088U 97051CX  25337.22612493  .00033009  00000+0  33569-2 0  9996",
        "tle_line2": "2 34088  86.3861  35.0928 0005176 211.8675 212.5030 14.90617457886002"
      },
      "geometry": {
        "type": "Point",
        "coordinates": [
          -141.79758224240757,
          -42.395294146208364
        ]
      }
    },
    {
      "type": "Feature",
      "properties": {
        "norad_id": 34091,
        "name": "IRIDIUM 33 DEB",
        "group": "iridium-33-debris",
        "lat": 6.764613901138206,
        "lon": 71.4237840369268,
        "alt_km": 611.981191154624,
        "timestamp": "2025-12-03T15:48:03.451624+00:00",
        "meta_object_name": "IRIDIUM 33 DEB",
        "meta_object_id": "1997-051DA",
        "meta_epoch": "2025-12-03T06:02:18.919104",
        "meta_mean_motion": 14.80605011,
        "meta_eccentricity": 0.00330393,
        "meta_inclination": 86.3421,
        "meta_ra_of_asc_node": 71.1749,
        "meta_arg_of_pericenter": 327.3284,
        "meta_mean_anomaly": 32.5893,
        "meta_ephemeris_type": 0,
        "meta_classification_type": "U",
        "meta_norad_cat_id": 34091,
        "meta_element_set_no": 999,
        "meta_rev_at_epoch": 87726,
        "meta_bstar": 0.0064087876,
        "meta_mean_motion_dot": 0.00049947,
        "meta_mean_motion_ddot": 0,
        "tle_line1": "1 34091U 97051DA  25337.25160786  .00049947  00000+0  64088-2 0  9994",
        "tle_line2": "2 34091  86.3421  71.1749 0033039 327.3284  32.5893 14.80605011877265"
      },
      "geometry": {
        "type": "Point",
        "coordinates": [
          71.4237840369268,
          6.764613901138206
        ]
      }
    },
    {
      "type": "Feature",
      "properties": {
        "norad_id": 34097,
        "name": "IRIDIUM 33 DEB",
        "group": "iridium-33-debris",
        "lat": -26.18165114129288,
        "lon": 3.5442207322262362,
        "alt_km": 749.6520234933269,
        "timestamp": "2025-12-03T15:48:03.451633+00:00",
        "meta_object_name": "IRIDIUM 33 DEB",
        "meta_object_id": "1997-051DG",
        "meta_epoch": "2025-12-03T02:31:49.025856",
        "meta_mean_motion": 14.34656828,
        "meta_eccentricity": 0.00837026,
        "meta_inclination": 86.2008,
        "meta_ra_of_asc_node": 5.6603,
        "meta_arg_of_pericenter": 33.4512,
        "meta_mean_anomaly": 327.1931,
        "meta_ephemeris_type": 0,
        "meta_classification_type": "U",
        "meta_norad_cat_id": 34097,
        "meta_element_set_no": 999,
        "meta_rev_at_epoch": 86981,
        "meta_bstar": 0.0016815085,
        "meta_mean_motion_dot": 4.966e-05,
        "meta_mean_motion_ddot": 0,
        "tle_line1": "1 34097U 97051DG  25337.10542854  .00004966  00000+0  16815-2 0  9991",
        "tle_line2": "2 34097  86.2008   5.6603 0083702  33.4512 327.1931 14.34656828869812"
      },
      "geometry": {
        "type": "Point",
        "coordinates": [
          3.5442207322262362,
          -26.18165114129288
        ]
      }
    },
    {
      "type": "Feature",
      "properties": {
        "norad_id": 34145,
        "name": "IRIDIUM 33 DEB",
        "group": "iridium-33-debris",
        "lat": -2.0777265117278274,
        "lon": -23.565954240694616,
        "alt_km": 776.8431948493853,
        "timestamp": "2025-12-03T15:48:03.451642+00:00",
        "meta_object_name": "IRIDIUM 33 DEB",
        "meta_object_id": "1997-051DY",
        "meta_epoch": "2025-12-03T00:49:25.530528",
        "meta_mean_motion": 14.42178924,
        "meta_eccentricity": 0.00552702,
        "meta_inclination": 86.2113,
        "meta_ra_of_asc_node": 336.8496,
        "meta_arg_of_pericenter": 124.685,
        "meta_mean_anomaly": 235.9576,
        "meta_ephemeris_type": 0,
        "meta_classification_type": "U",
        "meta_norad_cat_id": 34145,
        "meta_element_set_no": 999,
        "meta_rev_at_epoch": 87498,
        "meta_bstar": 0.0013049422,
        "meta_mean_motion_dot": 4.395e-05,
        "meta_mean_motion_ddot": 0,
        "tle_line1": "1 34145U 97051DY  25337.03432327  .00004395  00000+0  13049-2 0  9992",
        "tle_line2": "2 34145  86.2113 336.8496 0055270 124.6850 235.9576 14.42178924874989"
      },
      "geometry": {
        "type": "Point",
        "coordinates": [
          -23.565954240694616,
          -2.0777265117278274
        ]
      }
    },
    {
      "type": "Feature",
      "properties": {
        "norad_id": 34146,
        "name": "IRIDIUM 33 DEB",
        "group": "iridium-33-debris",
        "lat": 44.51190543907685,
        "lon": 170.14926089428712,
        "alt_km": 734.0048206332503,
        "timestamp": "2025-12-03T15:48:03.451651+00:00",
        "meta_object_name": "IRIDIUM 33 DEB",
        "meta_object_id": "1997-051DZ",
        "meta_epoch": "2025-12-03T02:11:34.446624",
        "meta_mean_motion": 14.48936814,
        "meta_eccentricity": 0.00249757,
        "meta_inclination": 86.2837,
        "meta_ra_of_asc_node": 354.0631,
        "meta_arg_of_pericenter": 256.2583,
        "meta_mean_anomaly": 163.5864,
        "meta_ephemeris_type": 0,
        "meta_classification_type": "U",
        "meta_norad_cat_id": 34146,
        "meta_element_set_no": 999,
        "meta_rev_at_epoch": 87967,
        "meta_bstar": 0.0012850405,
        "meta_mean_motion_dot": 4.904e-05,
        "meta_mean_motion_ddot": 0,
        "tle_line1": "1 34146U 97051DZ  25337.09137091  .00004904  00000+0  12850-2 0  9994",
        "tle_line2": "2 34146  86.2837 354.0631 0024975 256.2583 163.5864 14.48936814879672"
      },
      "geometry": {
        "type": "Point",
        "coordinates": [
          170.14926089428712,
          44.51190543907685
        ]
      }
    },
    {
      "type": "Feature",
      "properties": {
        "norad_id": 34159,
        "name": "IRIDIUM 33 DEB",
        "group": "iridium-33-debris",
        "lat": -13.771600692275236,
        "lon": -126.99108256624599,
        "alt_km": 779.3805034463967,
        "timestamp": "2025-12-03T15:48:03.451660+00:00",
        "meta_object_name": "IRIDIUM 33 DEB",
        "meta_object_id": "1997-051EN",
        "meta_epoch": "2025-12-03T04:53:03.077376",
        "meta_mean_motion": 14.38453701,
        "meta_eccentricity": 0.00265219,
        "meta_inclination": 86.3516,
        "meta_ra_of_asc_node": 52.3067,
        "meta_arg_of_pericenter": 321.2041,
        "meta_mean_anomaly": 38.7252,
        "meta_ephemeris_type": 0,
        "meta_classification_type": "U",
        "meta_norad_cat_id": 34159,
        "meta_element_set_no": 999,
        "meta_rev_at_epoch": 87822,
        "meta_bstar": 0.00054030161,
        "meta_mean_motion_dot": 1.674e-05,
        "meta_mean_motion_ddot": 0,
        "tle_line1": "1 34159U 97051EN  25337.20350784  .00001674  00000+0  54030-3 0  9995",
        "tle_line2": "2 34159  86.3516  52.3067 0026521 321.2041  38.7252 14.38453701878225"
      },
      "geometry": {
        "type": "Point",
        "coordinates": [
          -126.99108256624599,
          -13.771600692275236
        ]
      }
    }
  ]
}